GALAXY 15 (G-15)        
1 28884U 05041A   18131.73660324  .00000079  00000-0  00000+0 0  9990
2 28884   0.0095  39.8798 0001785   5.1851 316.5690  1.00272075 45969
SYRACUSE 3A             
1 28885U 05041B   18131.92594285  .00000129  00000-0  00000-0 0  9991
2 28885   0.0083   8.5516 0003511  45.6489 195.7742  1.00272610 46087
INMARSAT 4-F2           
1 28899U 05044A   18132.23281002  .00000012  00000-0  00000+0 0  9994
2 28899   2.6658  18.0020 0003773  53.9171 305.7161  1.00272734 45842
TELKOM 2                
1 28902U 05046A   18132.56776840 -.00000136  00000-0  00000+0 0  9994
2 28902   0.0371 113.9885 0001025 295.2024 182.4901  1.00272151 45587
SPACEWAY 2              
1 28903U 05046B   18132.35951997 -.00000125  00000-0  00000+0 0  9998
2 28903   0.0043  62.3703 0000270 108.7820  89.2951  1.00267760 45830
INSAT-4A                
1 28911U 05049A   18132.13088066 -.00000164  00000-0  00000+0 0  9997
2 28911   0.0397 274.5007 0002346  60.1287  25.3732  1.00271481 45438
METEOSAT-9 (MSG-2)      
1 28912U 05049B   18132.29256641  .00000022  00000-0  00000+0 0  9993
2 28912   2.8523  71.6524 0000417 252.1102  15.1989  1.00264819 45412
EUTELSAT 172A (GE-23)   
1 28924U 05052A   18132.54725946  .00000011  00000-0  00000+0 0  9995
2 28924   0.0747  29.6750 0005933  25.1876 186.4152  1.00272622 45326
ECHOSTAR 10             
1 28935U 06003A   18132.52549351 -.00000054  00000-0  00000+0 0  9994
2 28935   0.0116 273.0546 0001245 173.6161 222.5346  1.00270718 44852
HIMAWARI-7 (MTSAT-2)    
1 28937U 06004A   18132.53236458 -.00000241  00000-0  00000+0 0  9997
2 28937   0.0247 234.0736 0003764 185.6008 147.2229  1.00272906 44694
SPAINSAT                
1 28945U 06007A   18131.44671427 -.00000215  00000-0  00000-0 0  9999
2 28945   0.0230 183.1189 0002847 232.4812 304.4397  1.00271368 44566
EUTELSAT HOT BIRD 13E   
1 28946U 06007B   18131.32767459  .00000087  00000-0  00000+0 0  9993
2 28946   0.0325 239.5642 0003742 215.4161 265.0751  1.00270239 44635
JCSAT-5A                
1 29045U 06010A   18132.53359890 -.00000327  00000-0  00000+0 0  9996
2 29045   0.0224 102.8846 0001762 324.3732 127.1302  1.00269550 44281
ASTRA 1KR               
1 29055U 06012A   18132.51109207  .00000121  00000-0  00000+0 0  9993
2 29055   0.0388 273.2508 0000158  77.7232  82.4292  1.00272067 44089
GOES 13                 
1 29155U 06018A   18131.52908566 -.00000283  00000-0  00000-0 0  9996
2 29155   0.2399 273.8936 0007238 143.1396 303.0500  1.00274079 13715
EUTELSAT 113 WEST A     
1 29162U 06020A   18131.67675162 -.00000037  00000-0  00000-0 0  9993
2 29162   0.0125 155.1585 0003058 260.6339 304.2498  1.00272584 43809
THAICOM 5               
1 29163U 06020B   18131.84824407 -.00000121  00000-0  00000-0 0  9995
2 29163   0.0339 282.9582 0002532 116.4389 214.0524  1.00272815 43830
GALAXY 16 (G-16)        
1 29236U 06023A   18131.55902429 -.00000127  00000-0  00000+0 0  9993
2 29236   0.0118  97.2177 0002922 332.1040 262.2191  1.00272183 43593
EUTELSAT HOT BIRD 13B   
1 29270U 06032A   18132.50978353  .00000088  00000-0  00000+0 0  9991
2 29270   0.0754 336.1083 0005130  56.3994  34.2405  1.00270810 43203
JCSAT-3A                
1 29272U 06033A   18131.89317633 -.00000344  00000-0  00000-0 0  9990
2 29272   0.0148  88.6835 0001735 323.4334 267.0477  1.00270569 43092
SYRACUSE 3B             
1 29273U 06033B   18132.15813219 -.00000043  00000-0  00000+0 0  9997
2 29273   0.0118 310.3782 0004572  94.9483 236.2946  1.00271493 43088
KOREASAT 5 (MUGUNGWHA 5)
1 29349U 06034A   18132.02710794 -.00000357  00000-0  00000+0 0  9990
2 29349   0.0421  84.0933 0001327  13.3940 255.0906  1.00273586 42977
ZHONGXING-22A           
1 29398U 06038A   18132.22731330 -.00000091  00000-0  00000+0 0  9994
2 29398   6.3354  55.9268 0004395 325.1652 283.9641  1.00103179 42746
DIRECTV 9S              
1 29494U 06043A   18132.47965939 -.00000113  00000-0  00000+0 0  9993
2 29494   0.0158 213.8022 0002825 197.5732 250.4146  1.00271497 42440
OPTUS D1                
1 29495U 06043B   18132.18020674 -.00000110  00000-0  00000+0 0  9997
2 29495   0.0139 286.2488 0003265 125.9261  42.5976  1.00270211 42489
XM-4 (BLUES)            
1 29520U 06049A   18132.52549351 -.00000022  00000-0  00000+0 0  9990
2 29520   0.0051  84.0084 0000116  76.7847 143.3928  1.00271531 42339
BADR-4                  
1 29526U 06051A   18132.21365420  .00000145  00000-0  00000+0 0  9993
2 29526   0.0487 340.0829 0004382  32.8729 319.8892  1.00272468 42229
FENGYUN 2D              
1 29640U 06053A   18132.47324201 -.00000358  00000-0  10000-3 0  9994
2 29640   5.0537  62.7777 0005848 307.0266 154.0436  1.00286029 41903
WILDBLUE-1              
1 29643U 06054A   18131.72688191 -.00000049  00000-0  00000+0 0  9998
2 29643   0.0118 264.2599 0001628 139.5494 336.1653  1.00271803 41885
AMC-18                  
1 29644U 06054B   18132.47951270  .00000106  00000-0  00000+0 0  9996
2 29644   0.0131 292.0091 0002240 144.3379 187.4775  1.00270562 41898
MEASAT-3                
1 29648U 06056A   18131.94055528 -.00000241  00000-0  00000-0 0  9996
2 29648   0.0676 110.8775 0002555 338.5610 210.3506  1.00270905 20803
INSAT-4B                
1 30793U 07007A   18132.45770376 -.00000353  00000-0  00000+0 0  9991
2 30793   0.0944 100.1620 0003487 305.9920 100.0976  1.00272039 40901
SKYNET 5A               
1 30794U 07007B   18131.80523330 -.00000271  00000-0  00000-0 0  9996
2 30794   0.0690   0.7755 0003628  57.9564 195.9003  1.00271684 41033
ANIK F3                 
1 31102U 07009A   18132.48938331  .00000001  00000-0  00000+0 0  9997
2 31102   0.0147 288.0760 0001927 110.4575 249.1529  1.00267487 40678
ASTRA 1L                
1 31306U 07016A   18131.82198704  .00000120  00000-0  00000+0 0  9992
2 31306   0.0556 306.1724 0002658  53.8978 184.5762  1.00271699 40377
GALAXY 17 (G-17)        
1 31307U 07016B   18132.16993903 -.00000174  00000-0  00000+0 0  9995
2 31307   0.0576  81.9583 0003004 330.1825 147.9563  1.00273318 40416
ZHONGXING-6B            
1 31800U 07031A   18132.53313201 -.00000360  00000-0  00000+0 0  9995
2 31800   0.0129 297.5497 0002431 108.4047 131.6998  1.00275594 39814
DIRECTV 10              
1 31862U 07032A   18131.64855592 -.00000102  00000-0  00000+0 0  9993
2 31862   0.0086 304.8728 0000520 199.3708 215.7599  1.00269576 39749
SPACEWAY 3              
1 32018U 07036A   18132.05755321 -.00000151  00000-0  00000+0 0  9990
2 32018   0.0081  75.4648 0000205 213.1274 226.9652  1.00274402 39460
BSAT-3A                 
1 32019U 07036B   18131.05926606 -.00000351  00000-0  00000-0 0  9999
2 32019   0.0403 219.1426 0000707 329.9692 170.8990  1.00271724 20856
INSAT-4CR               
1 32050U 07037A   18132.44505457  .00000126  00000-0  00000+0 0  9994
2 32050   0.1012 102.2225 0001958 271.9413  64.1010  1.00275001 39190
OPTUS D2                
1 32252U 07044A   18131.81966125 -.00000183  00000-0  00000+0 0  9993
2 32252   0.0139 288.1675 0003323 126.6541 261.8183  1.00269305 38772
INTELSAT 11 (IS-11)     
1 32253U 07044B   18132.42690953 -.00000267  00000-0  00000+0 0  9998
2 32253   0.0200 220.2177 0001299 202.2352 278.4028  1.00273321 38873
STAR ONE C1             
1 32293U 07056A   18131.54377321 -.00000276  00000-0  00000+0 0  9998
2 32293   0.0077  82.2741 0002227 342.2577 295.5043  1.00271772 38446
SKYNET 5B               
1 32294U 07056B   18132.21365420  .00000143  00000-0  00000+0 0  9993
2 32294   0.0699 359.2668 0003255  47.6662 285.0045  1.00271993 38536
ASTRA 4A (SIRIUS 4)     
1 32299U 07057A   18132.29282812  .00000033  00000-0  00000+0 0  9998
2 32299   0.0153 316.0941 0002848 100.8284 283.3239  1.00271448 38294
HORIZONS-2              
1 32388U 07063B   18132.56002207 -.00000181  00000-0  00000+0 0  9997
2 32388   0.0122 298.9785 0002888 113.3562 104.3989  1.00272301 38221
THURAYA-3               
1 32404U 08001A   18132.02431639 -.00000306  00000-0  00000+0 0  9994
2 32404   3.9223 357.6889 0004720  48.1397 291.1839  1.00272715 37878
EXPRESS-AM33            
1 32478U 08003A   18131.37781181 -.00000281  00000-0  00000-0 0  9997
2 32478   0.0040 326.9523 0000551 169.0487 325.6164  1.00270655 37942
THOR 5                  
1 32487U 08006A   18132.29169405 -.00000008  00000-0  00000+0 0  9997
2 32487   0.0099 249.9228 0002645 167.9106 276.4454  1.00271431 37514
KIZUNA (WINDS)          
1 32500U 08007A   18132.17680453 -.00000257  00000-0  00000+0 0  9998
2 32500   1.5367  88.3330 0002637 319.2134  28.9964  1.00272535 37373
AMC-14                  
1 32708U 08011A   18131.98712941  .00000098  00000-0  00000+0 0  9991
2 32708  19.7018  57.9959 0044189 359.1302 185.8855  1.00276315 38434
DIRECTV 11              
1 32729U 08013A   18132.43382633 -.00000125  00000-0  00000+0 0  9990
2 32729   0.0031  35.3822 0000031 326.2857 285.4910  1.00272191 37270
ICO G1                  
1 32763U 08016A   18131.48362883 -.00000176  00000-0  00000-0 0  9997
2 32763   3.7215 359.5266 0002703  43.3125 267.6313  1.00272632 36917
VINASAT-1               
1 32767U 08018A   18130.99816924 -.00000328  00000-0  00000+0 0  9996
2 32767   0.0333  61.0479 0001634  13.3965 285.5857  1.00274159 36934
STAR ONE C2             
1 32768U 08018B   18131.55761958 -.00000264  00000-0  00000-0 0  9996
2 32768   0.0598 106.3181 0003028 352.1320 261.5972  1.00272420 37010
TIANLIAN 1-01           
1 32779U 08019A   18131.84824407 -.00000136  00000-0  10000-3 0  9992
2 32779   2.8871  74.3453 0034742 243.2225 297.3433  1.00270652 36803
AMOS-3                  
1 32794U 08022A   18132.29108340 -.00000034  00000-0  00000+0 0  9996
2 32794   0.0490 107.5503 0001231 258.0507 325.0815  1.00271479 36784
GALAXY 18 (G-18)        
1 32951U 08024A   18131.70447736  .00000025  00000-0  00000+0 0  9992
2 32951   0.0143 277.1466 0003070 142.0200 300.8770  1.00272785 36424
